{"type": "FeatureCollection", "features": [ {"type": "Feature", "properties": {"norad_id": 32384, "name": "GPS BIIRM-5 (PRN 29)", "group": "gps-ops", "lat": 35.460347720550196, "lon": 71.657711180029, "alt_km": 20100.233954849227, "timestamp": "2025-12-20T05:41:50.289048+00:00", "meta": {"OBJECT_NAME": "GPS BIIRM-5 (PRN 29)", "OBJECT_ID": "2007-062A", "EPOCH": "2025-12-19T04:08:10.010976", "MEAN_MOTION": 2.00577702, "ECCENTRICITY": 0.00322663, "INCLINATION": 55.1765, "RA_OF_ASC_NODE": 281.388, "ARG_OF_PERICENTER": 162.2119, "MEAN_ANOMALY": 283.9132, "EPHEMERIS_TYPE": 0, "CLASSIFICATION_TYPE": "U", "NORAD_CAT_ID": 32384, "ELEMENT_SET_NO": 999, "REV_AT_EPOCH": 13190, "BSTAR": 0, "MEAN_MOTION_DOT": -3.8e-07, "MEAN_MOTION_DDOT": 0}, "tle": {"line1": "1 32384U 07062A   25353.17233809 -.00000038  00000+0  00000+0 0  9996", "line2": "2 32384  55.1765 281.3880 0032266 162.2119 283.9132  2.00577702131904"}}, "geometry": {"type": "Point", "coordinates": [71.657711180029, 35.460347720550196]}}, {"type": "Feature", "properties": {"norad_id": 32711, "name": "GPS BIIRM-6 (PRN 07)", "group": "gps-ops", "lat": 44.52304952362207, "lon": -158.28258248684605, "alt_km": 20712.22267638676, "timestamp": "2025-12-20T05:41:50.289060+00:00", "meta": {"OBJECT_NAME": "GPS BIIRM-6 (PRN 07)", "OBJECT_ID": "2008-012A", "EPOCH": "2025-12-19T15:41:26.858112", "MEAN_MOTION": 2.00565937, "ECCENTRICITY": 0.0202735, "INCLINATION": 54.4779, "RA_OF_ASC_NODE": 157.0969, "ARG_OF_PERICENTER": 245.0276, "MEAN_ANOMALY": 112.8468, "EPHEMERIS_TYPE": 0, "CLASSIFICATION_TYPE": "U", "NORAD_CAT_ID": 32711, "ELEMENT_SET_NO": 999, "REV_AT_EPOCH": 13015, "BSTAR": 0, "MEAN_MOTION_DOT": 6.7e-07, "MEAN_MOTION_DDOT": 0}, "tle": {"line1": "1 32711U 08012A   25353.65378308  .00000067  00000+0  00000+0 0  9994", "line2": "2 32711  54.4779 157.0969 0202735 245.0276 112.8468  2.00565937130151"}}, "geometry": {"type": "Point", "coordinates": [-158.28258248684605, 44.52304952362207]}}, {"type": "Feature", "properties": {"norad_id": 35752, "name": "GPS BIIRM-8 (PRN 05)", "group": "gps-ops", "lat": 54.59261759642791, "lon": 105.50447872106085, "alt_km": 20038.34864649913, "timestamp": "2025-12-20T05:41:50.289072+00:00", "meta": {"OBJECT_NAME": "GPS BIIRM-8 (PRN 05)", "OBJECT_ID": "2009-043A", "EPOCH": "2025-12-18T04:21:14.473728", "MEAN_MOTION": 2.00565462, "ECCENTRICITY": 0.00516833, "INCLINATION": 56.0947, "RA_OF_ASC_NODE": 34.5684, "ARG_OF_PERICENTER": 81.8123, "MEAN_ANOMALY": 312.8651, "EPHEMERIS_TYPE": 0, "CLASSIFICATION_TYPE": "U", "NORAD_CAT_ID": 35752, "ELEMENT_SET_NO": 999, "REV_AT_EPOCH": 11973, "BSTAR": 0, "MEAN_MOTION_DOT": -7.2e-07, "MEAN_MOTION_DDOT": 0}, "tle": {"line1": "1 35752U 09043A   25352.18141752 -.00000072  00000+0  00000+0 0  9992", "line2": "2 35752  56.0947  34.5684 0051683  81.8123 312.8651  2.00565462119738"}}, "geometry": {"type": "Point", "coordinates": [105.50447872106085, 54.59261759642791]}}, {"type": "Feature", "properties": {"norad_id": 36585, "name": "GPS BIIF-1  (PRN 25)", "group": "gps-ops", "lat": -14.803389662777683, "lon": 46.73778459864495, "alt_km": 20412.82881791557, "timestamp": "2025-12-20T05:41:50.289083+00:00", "meta": {"OBJECT_NAME": "GPS BIIF-1  (PRN 25)", "OBJECT_ID": "2010-022A", "EPOCH": "2025-12-19T06:21:16.820064", "MEAN_MOTION": 2.00553606, "ECCENTRICITY": 0.0126373, "INCLINATION": 54.2991, "RA_OF_ASC_NODE": 215.8107, "ARG_OF_PERICENTER": 65.1538, "MEAN_ANOMALY": 149.9258, "EPHEMERIS_TYPE": 0, "CLASSIFICATION_TYPE": "U", "NORAD_CAT_ID": 36585, "ELEMENT_SET_NO": 999, "REV_AT_EPOCH": 11398, "BSTAR": 0, "MEAN_MOTION_DOT": 8.2e-07, "MEAN_MOTION_DDOT": 0}, "tle": {"line1": "1 36585U 10022A   25353.26477801  .00000082  00000+0  00000+0 0  9993", "line2": "2 36585  54.2991 215.8107 0126373  65.1538 149.9258  2.00553606113980"}}, "geometry": {"type": "Point", "coordinates": [46.73778459864495, -14.803389662777683]}}, {"type": "Feature", "properties": {"norad_id": 38833, "name": "GPS BIIF-3  (PRN 24)", "group": "gps-ops", "lat": -47.472731157891324, "lon": 97.23777592946306, "alt_km": 20486.16096877449, "timestamp": "2025-12-20T05:41:50.289095+00:00", "meta": {"OBJECT_NAME": "GPS BIIF-3  (PRN 24)", "OBJECT_ID": "2012-053A", "EPOCH": "2025-12-19T07:58:55.415712", "MEAN_MOTION": 2.0056508, "ECCENTRICITY": 0.0176, "INCLINATION": 53.559, "RA_OF_ASC_NODE": 150.9686, "ARG_OF_PERICENTER": 64.0969, "MEAN_ANOMALY": 297.6893, "EPHEMERIS_TYPE": 0, "CLASSIFICATION_TYPE": "U", "NORAD_CAT_ID": 38833, "ELEMENT_SET_NO": 999, "REV_AT_EPOCH": 9583, "BSTAR": 0, "MEAN_MOTION_DOT": 5.7e-07, "MEAN_MOTION_DDOT": 0}, "tle": {"line1": "1 38833U 12053A   25353.33258583  .00000057  00000+0  00000+0 0  9991", "line2": "2 38833  53.5590 150.9686 0176000  64.0969 297.6893  2.00565080 95832"}}, "geometry": {"type": "Point", "coordinates": [97.23777592946306, -47.472731157891324]}}, {"type": "Feature", "properties": {"norad_id": 39166, "name": "GPS BIIF-4  (PRN 27)", "group": "gps-ops", "lat": 25.758082602980114, "lon": -63.74826372743581, "alt_km": 19826.731697450687, "timestamp": "2025-12-20T05:41:50.289107+00:00", "meta": {"OBJECT_NAME": "GPS BIIF-4  (PRN 27)", "OBJECT_ID": "2013-023A", "EPOCH": "2025-12-19T04:43:12.887616", "MEAN_MOTION": 2.00564719, "ECCENTRICITY": 0.0138305, "INCLINATION": 54.6464, "RA_OF_ASC_NODE": 276.3057, "ARG_OF_PERICENTER": 48.6894, "MEAN_ANOMALY": 312.5202, "EPHEMERIS_TYPE": 0, "CLASSIFICATION_TYPE": "U", "NORAD_CAT_ID": 39166, "ELEMENT_SET_NO": 999, "REV_AT_EPOCH": 9227, "BSTAR": 0, "MEAN_MOTION_DOT": -2.9e-07, "MEAN_MOTION_DDOT": 0}, "tle": {"line1": "1 39166U 13023A   25353.19667694 -.00000029  00000+0  00000+0 0  9990", "line2": "2 39166  54.6464 276.3057 0138305  48.6894 312.5202  2.00564719 92274"}}, "geometry": {"type": "Point", "coordinates": [-63.74826372743581, 25.758082602980114]}}, {"type": "Feature", "properties": {"norad_id": 39533, "name": "GPS BIIF-5  (PRN 30)", "group": "gps-ops", "lat": 27.97599609894284, "lon": 179.6593751736469, "alt_km": 20384.450750590295, "timestamp": "2025-12-20T05:41:50.289118+00:00", "meta": {"OBJECT_NAME": "GPS BIIF-5  (PRN 30)", "OBJECT_ID": "2014-008A", "EPOCH": "2025-12-17T04:42:21.782016", "MEAN_MOTION": 2.00574699, "ECCENTRICITY": 0.00793343, "INCLINATION": 53.632, "RA_OF_ASC_NODE": 156.7429, "ARG_OF_PERICENTER": 226.5757, "MEAN_ANOMALY": 132.7662, "EPHEMERIS_TYPE": 0, "CLASSIFICATION_TYPE": "U", "NORAD_CAT_ID": 39533, "ELEMENT_SET_NO": 999, "REV_AT_EPOCH": 8603, "BSTAR": 0, "MEAN_MOTION_DOT": 7.8e-07, "MEAN_MOTION_DDOT": 0}, "tle": {"line1": "1 39533U 14008A   25351.19608544  .00000078  00000+0  00000+0 0  9992", "line2": "2 39533  53.6320 156.7429 0079334 226.5757 132.7662  2.00574699 86034"}}, "geometry": {"type": "Point", "coordinates": [179.6593751736469, 27.97599609894284]}}, {"type": "Feature", "properties": {"norad_id": 39741, "name": "GPS BIIF-6  (PRN 06)", "group": "gps-ops", "lat": -8.758358715589463, "lon": 164.31055542963318, "alt_km": 20248.66571861843, "timestamp": "2025-12-20T05:41:50.289129+00:00", "meta": {"OBJECT_NAME": "GPS BIIF-6  (PRN 06)", "OBJECT_ID": "2014-026A", "EPOCH": "2025-12-18T23:24:45.525888", "MEAN_MOTION": 2.00561009, "ECCENTRICITY": 0.00393411, "INCLINATION": 56.5812, "RA_OF_ASC_NODE": 338.5339, "ARG_OF_PERICENTER": 319.0443, "MEAN_ANOMALY": 40.6665, "EPHEMERIS_TYPE": 0, "CLASSIFICATION_TYPE": "U", "NORAD_CAT_ID": 39741, "ELEMENT_SET_NO": 999, "REV_AT_EPOCH": 8492, "BSTAR": 0, "MEAN_MOTION_DOT": -8.1e-07, "MEAN_MOTION_DDOT": 0}, "tle": {"line1": "1 39741U 14026A   25352.97552692 -.00000081  00000+0  00000+0 0  9997", "line2": "2 39741  56.5812 338.5339 0039341 319.0443  40.6665  2.00561009 84924"}}, "geometry": {"type": "Point", "coordinates": [164.31055542963318, -8.758358715589463]}}, {"type": "Feature", "properties": {"norad_id": 40105, "name": "GPS BIIF-7  (PRN 09)", "group": "gps-ops", "lat": 39.90017755901982, "lon": -119.84646322817433, "alt_km": 20091.11956204563, "timestamp": "2025-12-20T05:41:50.289140+00:00", "meta": {"OBJECT_NAME": "GPS BIIF-7  (PRN 09)", "OBJECT_ID": "2014-045A", "EPOCH": "2025-12-18T01:34:21.644256", "MEAN_MOTION": 2.00572958, "ECCENTRICITY": 0.00325491, "INCLINATION": 55.2322, "RA_OF_ASC_NODE": 95.6864, "ARG_OF_PERICENTER": 120.0469, "MEAN_ANOMALY": 240.2601, "EPHEMERIS_TYPE": 0, "CLASSIFICATION_TYPE": "U", "NORAD_CAT_ID": 40105, "ELEMENT_SET_NO": 999, "REV_AT_EPOCH": 8244, "BSTAR": 0, "MEAN_MOTION_DOT": -3.8e-07, "MEAN_MOTION_DDOT": 0}, "tle": {"line1": "1 40105U 14045A   25352.06552829 -.00000038  00000+0  00000+0 0  9998", "line2": "2 40105  55.2322  95.6864 0032549 120.0469 240.2601  2.00572958 82445"}}, "geometry": {"type": "Point", "coordinates": [-119.84646322817433, 39.90017755901982]}}, {"type": "Feature", "properties": {"norad_id": 40294, "name": "GPS BIIF-8  (PRN 03)", "group": "gps-ops", "lat": -30.456889494904544, "lon": -119.54997061901551, "alt_km": 20323.277968409766, "timestamp": "2025-12-20T05:41:50.289152+00:00", "meta": {"OBJECT_NAME": "GPS BIIF-8  (PRN 03)", "OBJECT_ID": "2014-068A", "EPOCH": "2025-12-19T10:32:44.453760", "MEAN_MOTION": 2.00565341, "ECCENTRICITY": 0.0060808, "INCLINATION": 56.8627, "RA_OF_ASC_NODE": 37.8869, "ARG_OF_PERICENTER": 69.0507, "MEAN_ANOMALY": 291.6667, "EPHEMERIS_TYPE": 0, "CLASSIFICATION_TYPE": "U", "NORAD_CAT_ID": 40294, "ELEMENT_SET_NO": 999, "REV_AT_EPOCH": 8160, "BSTAR": 0, "MEAN_MOTION_DOT": -6.1e-07, "MEAN_MOTION_DDOT": 0}, "tle": {"line1": "1 40294U 14068A   25353.43940340 -.00000061  00000+0  00000+0 0  9999", "line2": "2 40294  56.8627  37.8869 0060808  69.0507 291.6667  2.00565341 81603"}}, "geometry": {"type": "Point", "coordinates": [-119.54997061901551, -30.456889494904544]}}]}